[{"OBJECT_NAME":"NISAR","OBJECT_ID":"2025-163A","EPOCH":"2026-03-09T23:23:00.539520","MEAN_MOTION":14.42502005,"ECCENTRICITY":0.00012255,"INCLINATION":98.4063,"RA_OF_ASC_NODE":258.0769,"ARG_OF_PERICENTER":90.8877,"MEAN_ANOMALY":269.2453,"EPHEMERIS_TYPE":0,"CLASSIFICATION_TYPE":"U","NORAD_CAT_ID":65053,"ELEMENT_SET_NO":999,"REV_AT_EPOCH":3208,"BSTAR":7.226955e-6,"MEAN_MOTION_DOT":-2.0e-7,"MEAN_MOTION_DDOT":0},{"OBJECT_NAME":"FENGYUN 1C DEB","OBJECT_ID":"1999-025LP","EPOCH":"2026-03-09T22:58:55.729344","MEAN_MOTION":14.15902978,"ECCENTRICITY":0.01225887,"INCLINATION":98.6803,"RA_OF_ASC_NODE":50.4512,"ARG_OF_PERICENTER":306.5765,"MEAN_ANOMALY":125.8132,"EPHEMERIS_TYPE":0,"CLASSIFICATION_TYPE":"U","NORAD_CAT_ID":29989,"ELEMENT_SET_NO":999,"REV_AT_EPOCH":98845,"BSTAR":0.00025982079,"MEAN_MOTION_DOT":5.06e-6,"MEAN_MOTION_DDOT":0}]
